DMSP 5D-3 F16 (USA 172) 
1 28054U 03048A   26195.18667083 -.00000051  00000+0 -28212-5 0  9993
2 28054  98.9896 219.1927 0008107  73.6667 351.1957 14.14484858173304
METEOSAT-9 (MSG-2)      
1 28912U 05049B   26194.71255669  .00000113  00000+0  00000+0 0  9996
2 28912   9.4193  53.9017 0002102 356.2419 183.6226  1.00271253  7264
DMSP 5D-3 F17 (USA 191) 
1 29522U 06050A   26195.18137307 -.00000020  00000+0  12142-4 0  9990
2 29522  98.7387 201.1998 0009777 345.8871  14.2028 14.14996189 16242
FENGYUN 3A              
1 32958U 08026A   26194.83102228  .00000011  00000+0  25818-4 0  9990
2 32958  98.6887 135.1665 0009697  55.4329 304.7761 14.19576343939182
GOES 14                 
1 35491U 09033A   26194.87106412 -.00000364  00000+0  00000+0 0  9990
2 35491   1.7562  82.7087 0001875  40.5773 247.9351  1.00098692  6859
DMSP 5D-3 F18 (USA 210) 
1 35951U 09057A   26195.15445529  .00000157  00000+0  10426-3 0  9990
2 35951  98.9056 175.8673 0011159 168.3714 191.7718 14.14911188863409
EWS-G2 (GOES 15)        
1 36411U 10008A   26195.14384171  .00000015  00000+0  00000+0 0  9990
2 36411   1.3495  82.4739 0005206  54.1006 270.5419  1.00268319 59902
COMS 1                  
1 36744U 10032A   26195.05322677 -.00000258  00000+0  00000+0 0  9999
2 36744   4.8718  75.0315 0011263  14.6852 187.9641  0.99168235 51357
FENGYUN 3B              
1 37214U 10059A   26195.25067807 -.00000060  00000+0 -77000-5 0  9996
2 37214  98.9613 241.3777 0023150 109.1606 328.0032 14.14847138811256
SUOMI NPP               
1 37849U 11061A   26195.19568558 -.00000003  00000+0  19608-4 0  9991
2 37849  98.7956 135.8881 0000705 220.0274 140.0850 14.19522445762279
METEOSAT-10 (MSG-3)     
1 38552U 12035B   26194.91744978 -.00000016  00000+0  00000+0 0  9991
2 38552   4.7328  60.8864 0001105  16.8422 184.3905  1.00270523 51120
METOP-B                 
1 38771U 12049A   26195.14932161  .00000053  00000+0  44067-4 0  9994
2 38771  98.6491 246.1087 0001075 261.8835  98.2221 14.21446205717096
INSAT-3D                
1 39216U 13038B   26194.87184412 -.00000346  00000+0  00000+0 0  9995
2 39216   1.9926  82.2017 0000507  85.6144 207.2989  1.00269044 47341
FENGYUN 3C              
1 39260U 13052A   26195.18237875  .00000022  00000+0  32546-4 0  9992
2 39260  98.4997 167.8202 0013713 309.1054  50.8900 14.15760601662389
METEOR-M 2              
1 40069U 14037A   26195.17529799  .00000173  00000+0  98198-4 0  9995
2 40069  98.5123 169.9602 0005229 330.5526  29.5356 14.21469914623152
HIMAWARI-8              
1 40267U 14060A   26194.87401080 -.00000281  00000+0  00000+0 0  9990
2 40267   0.0136 332.2149 0001060 198.0280 216.8129  1.00271834 43024
FENGYUN 2G              
1 40367U 14090A   26194.89404384 -.00000308  00000+0  00000+0 0  9996
2 40367   5.7041  72.4904 0004207 153.4534 126.9012  1.00260524 42268
METEOSAT-11 (MSG-4)     
1 40732U 15034A   26195.13318168  .00000053  00000+0  00000+0 0  9999
2 40732   3.2665  70.9401 0002198 353.9910 284.2617  1.00271529  7487
ELEKTRO-L 2             
1 41105U 15074A   26194.99508521 -.00000128  00000+0  00000+0 0  9999
2 41105   6.7582  70.1887 0000974 214.5456 350.8546  1.00272120 38770
SENTINEL-3A             
1 41335U 16011A   26195.14643044  .00000047  00000+0  37261-4 0  9997
2 41335  98.6238 262.1412 0001367  90.4375 269.6962 14.26739598541900
INSAT-3DR               
1 41752U 16054A   26195.14583507 -.00000083  00000+0  00000+0 0  9991
2 41752   0.0672  88.6741 0010618 181.2851 148.5520  1.00270620 36082
HIMAWARI-9              
1 41836U 16064A   26194.58887337 -.00000279  00000+0  00000+0 0  9997
2 41836   0.0078 101.5563 0001835  72.1625 110.4809  1.00270073 35472
GOES 16                 
1 41866U 16071A   26195.11058086 -.00000097  00000+0  00000+0 0  9997
2 41866   0.4011  85.4810 0000525  98.2592  43.3529  1.00270907 35376
FENGYUN 4A              
1 41882U 16077A   26195.22710282 -.00000366  00000+0  00000+0 0  9995
2 41882   2.3881  79.9689 0008503 159.4197 258.2171  1.00268637 35206
CYGFM05                 
1 41884U 16078A   26195.10431950  .00016003  00000+0  20807-3 0  9992
2 41884  34.9569  82.1889 0006159  25.9926 334.1108 15.57820698532958
CYGFM04                 
1 41885U 16078B   26194.98823965  .00021781  00000+0  23151-3 0  9993
2 41885  34.9326  49.2545 0004310  70.1519 289.9671 15.63027210533195
CYGFM02                 
1 41886U 16078C   26194.99909647  .00027257  00000+0  25397-3 0  9995
2 41886  34.9407  42.8972 0005018  74.6648 285.4633 15.66297536533379
CYGFM01                 
1 41887U 16078D   26195.08094772  .00017531  00000+0  22174-3 0  9995
2 41887  34.9398  83.1778 0006167  18.9479 341.1474 15.58537452532906
CYGFM08                 
1 41888U 16078E   26195.05662138  .00020409  00000+0  23101-3 0  9999
2 41888  34.9434  62.1840 0006304  56.6371 303.4957 15.61412519533175
CYGFM07                 
1 41890U 16078G   26195.01401315  .00020774  00000+0  23424-3 0  9999
2 41890  34.9449  50.7865 0004716  71.3669 288.7568 15.61519733533194
CYGFM03                 
1 41891U 16078H   26194.98519743  .00020325  00000+0  22934-3 0  9997
2 41891  34.9405  52.9079 0004640  53.4724 306.6429 15.61504586533160
